DELTA 2 R/B             
1 25876U 99041E   19202.17052712 -.00000200  00000-0  81676-5 0  9996
2 25876  51.7619 181.9822 0531491  95.1674 271.0109 14.04334532 21962
HELIOS 1B               
1 25977U 99064A   19202.47549238 -.00000007  00000-0  61137-5 0  9995
2 25977  98.2363 341.7085 0001360  37.7705 322.3602 14.82426452 57233
TERRA                   
1 25994U 99068A   19202.49663464  .00000211  00000-0  56827-4 0  9993
2 25994  98.2033 276.5447 0001074  91.4702 268.6633 14.57113050 41978
SL-16 R/B               
1 26070U 00006B   19201.94975410 -.00000082  00000-0 -17482-4 0  9991
2 26070  71.0026 151.9658 0018935 270.6152  89.2801 14.15460179  5581
TITAN 4B R/B            
1 26474U 00047B   19202.47701405 -.00000002  00000-0  10840-4 0  9996
2 26474  67.9937 269.3960 0058164 207.2563 152.5524 14.95841028 29670
ENVISAT                 
1 27386U 02009A   19202.53396021 -.00000010  00000-0  10239-4 0  9991
2 27386  98.1478 221.8791 0001411  94.0196  79.0920 14.37953059910914
IDEFIX & ARIANE 42P R/B 
1 27422U 02021B   19201.92945795 -.00000028  00000-0  52549-5 0  9996
2 27422  98.3020 172.6904 0013157 130.0769 230.1569 14.29274018897663
AQUA                    
1 27424U 02022A   19202.53755753  .00000054  00000-0  22108-4 0  9995
2 27424  98.2041 142.8898 0001253   4.8756 108.2424 14.57112257915580
CZ-4B R/B               
1 27432U 02024C   19202.06345914 -.00000039  00000-0  36641-5 0  9990
2 27432  99.0703 193.8829 0051131  35.1584   6.5340 14.14081785886756
MIDORI II (ADEOS-II)    
1 27597U 02056A   19201.86049193  .00000015  00000-0  23436-4 0  9994
2 27597  98.4739 153.6655 0000440 125.4774 234.6448 14.27404888864365
H-2A R/B                
1 27601U 02056E   19202.19090595  .00000015  00000-0  20206-4 0  9991
2 27601  98.2726 249.2100 0072103 185.6248 217.8566 14.31900704867147
CZ-4B R/B               
1 28059U 03049C   19202.37556179 -.00000020  00000-0  69241-5 0  9997
2 28059  98.4922 110.0807 0051325  74.0762 286.6081 14.52566857834600
CZ-2C R/B               
1 28222U 04012C   19201.91198338  .00000411  00000-0  28574-4 0  9994
2 28222  97.6280 159.6884 0049073  88.5685 336.0685 15.10108778835807
SL-16 R/B               
1 28353U 04021B   19202.19514217 -.00000208  00000-0 -83856-4 0  9998
2 28353  71.0000 276.1661 0003392 139.7392 220.3982 14.14215820780178
CZ-4B R/B               
1 28415U 04035C   19201.73059339  .00000435  00000-0  32775-4 0  9994
2 28415  97.6586 241.0227 0052832  47.1334 313.4312 15.06705797813537
CZ-2C R/B               
1 28480U 04046B   19202.18085748  .00000001  00000-0  15140-4 0  9997
2 28480  98.1275 256.9920 0143037 128.0253 297.1584 14.25704514763092
ARIANE 5 R/B            
1 28499U 04049H   19201.88413333  .00000012  00000-0  91100-5 0  9994
2 28499  98.0527 297.7355 0090830 268.1706 202.4179 14.79972978786901
CZ-2D R/B               
1 28738U 05024B   19202.14543254  .00000215  00000-0  16238-4 0  9993
2 28738  97.4125 230.1566 0010456 248.6633 111.3482 15.11834710771218
SUZAKU (ASTRO-EII)      
1 28773U 05025A   19201.87931892  .00000543  00000-0  22401-4 0  9994
2 28773  31.3835  18.4169 0004267 101.3083 258.8043 15.17116954773407
ALOS (DAICHI)           
1 28931U 06002A   19202.56254937  .00000062  00000-0  20746-4 0  9997
2 28931  97.8197 200.1189 0002451  62.6987 297.4464 14.62623306719182
H-2A R/B                
1 28932U 06002B   19202.51221890 -.00000019  00000-0  48700-5 0  9999
2 28932  98.2827 169.6519 0088297 328.5260 142.1793 14.92004634731752
AKARI (ASTRO-F)         
1 28939U 06005A   19201.91416293  .00001977  00000-0  56778-4 0  9991
2 28939  98.1921 134.2476 0098326  47.2595 313.6867 15.32640966729958
RESURS-DK 1             
1 29228U 06021A   19201.87422135 -.00000006  00000-0  69690-5 0  9999
2 29228  69.9365 314.5977 0007626 259.0737 100.9566 15.02450591722799
GENESIS 1               
1 29252U 06029A   19201.84213806  .00000267  00000-0  23220-4 0  9990
2 29252  64.5122 309.2818 0045566 232.0137 127.6867 15.17774477717694
CZ-4B R/B               
1 29507U 06046C   19202.13278755  .00000884  00000-0  73650-4 0  9996
2 29507  97.7643 219.7728 0047729 200.8910 159.0365 15.00448523695580
CZ-2C R/B               
1 31114U 07010B   19202.47502195 -.00000050  00000-0 -47215-5 0  9996
2 31114  98.3069  71.8260 0060132 153.1462 207.2850 14.19295289635935
COSMO-SKYMED 1          
1 31598U 07023A   19202.52845637 -.00000258  00000-0 -25910-4 0  9990
2 31598  97.8902  25.4380 0001312  81.8860 278.2519 14.82152940655661
GENESIS 2               
1 31789U 07028A   19201.93891548  .00000049  00000-0  13013-4 0  9990
2 31789  64.5037 349.8075 0051328 284.0402  75.5017 15.16954369664729
COSMOS 2428             
1 31792U 07029A   19202.48037889 -.00000273  00000-0 -12199-3 0  9990
2 31792  70.9403 249.6900 0007884 220.5184 139.5351 14.12463402621997
SL-16 R/B               
1 31793U 07029B   19202.54217486  .00000022  00000-0  36281-4 0  9990
2 31793  70.9745 223.5799 0002003 280.1368 243.3348 14.14421644622791
KORONAS-FOTON           
1 33504U 09003A   19201.93278990  .00000425  00000-0  20732-4 0  9996
2 33504  82.4412 193.6298 0018984 354.6404   5.4621 15.15432582577027
H-2A R/B                
1 38341U 12025E   19201.89627773  .00000083  00000-0  17376-4 0  9990
2 38341  98.4550 331.3568 0054860 219.9379 139.7792 14.83904707388048
CUSAT 2 & FALCON 9 R/B  
1 39271U 13055G   19202.39209636  .00003115  00000-0  74395-4 0  9990
2 39271  80.9665 263.3533 0601155  86.6742 280.2993 14.45227190302726
SL-4 R/B                
1 39679U 14021B   19202.44390275 -.00000217  00000-0  78478-5 0  9990
2 39679  51.6156 207.8134 0172329 235.4336 123.0269 15.06123042289304
ALOS-2                  
1 39766U 14029A   19202.50145139  .00000054  00000-0  14167-4 0  9991
2 39766  97.9228 298.8563 0001357  88.1004 272.0368 14.79471125278611
SL-27 R/B               
1 40354U 14084B   19201.83234448  .00000327  00000-0  94173-5 0  9993
2 40354  74.7385 355.9572 0038324 351.2701   8.7839 15.39742486256936
ASTRO-H (HITOMI)        
1 41337U 16012A   19201.77194158  .00000166  00000-0  65497-5 0  9992
2 41337  31.0063 318.9580 0012438  23.0760 337.0432 14.98592094187552
TIANGONG-2              
1 41765U 16057A   19200.28161137  .00235737  81559-5  15236-3 0  9993
2 41765  42.7846 135.0246 0143359 272.5645 218.4707 15.97835923162069
SHENZHOU-11 MODULE      
1 41868U 16061G   19201.82137267  .00009158  00000-0  48019-4 0  9999
2 41868  42.7939  41.2641 0008515 284.4668 149.6648 15.81009190153199
HXMT (HUIYAN)           
1 42758U 17034A   19202.44054240  .00000001  00000-0  13839-4 0  9997
2 42758  43.0201  57.0891 0009423  96.5941 327.7661 15.08618606115729
SAOCOM 1A               
1 43641U 18076A   19202.46917407 -.00000008  00000-0  55418-5 0  9999
2 43641  97.8878  28.3427 0001371  79.6588 280.4789 14.82157416 42427
